{"type": "FeatureCollection", "features": [ {"type": "Feature", "properties": {"norad_id": 36011, "name": "IRIDIUM 33 DEB", "group": "iridium-33-debris", "lat": 7.366409632970629, "lon": 37.54994378602473, "alt_km": 765.347432041729, "timestamp": "2025-12-08T21:31:05.052274+00:00", "meta": {"OBJECT_NAME": "IRIDIUM 33 DEB", "OBJECT_ID": "1997-051US", "EPOCH": "2025-12-08T10:05:26.079072", "MEAN_MOTION": 14.41310203, "ECCENTRICITY": 0.00172479, "INCLINATION": 86.3414, "RA_OF_ASC_NODE": 37.2804, "ARG_OF_PERICENTER": 231.0749, "MEAN_ANOMALY": 187.2759, "EPHEMERIS_TYPE": 0, "CLASSIFICATION_TYPE": "U", "NORAD_CAT_ID": 36011, "ELEMENT_SET_NO": 999, "REV_AT_EPOCH": 64478, "BSTAR": 0.00083412768, "MEAN_MOTION_DOT": 2.72e-05, "MEAN_MOTION_DDOT": 0}, "tle": {"line1": "1 36011U 97051US  25342.42044073  .00002720  00000+0  83413-3 0  9995", "line2": "2 36011  86.3414  37.2804 0017247 231.0749 187.2759 14.41310203644787"}}, "geometry": {"type": "Point", "coordinates": [37.54994378602473, 7.366409632970629]}}, {"type": "Feature", "properties": {"norad_id": 36012, "name": "IRIDIUM 33 DEB", "group": "iridium-33-debris", "lat": -60.351692623056906, "lon": 135.35457517824838, "alt_km": 710.1626066740591, "timestamp": "2025-12-08T21:31:05.052284+00:00", "meta": {"OBJECT_NAME": "IRIDIUM 33 DEB", "OBJECT_ID": "1997-051UT", "EPOCH": "2025-12-08T15:17:32.043552", "MEAN_MOTION": 14.18803085, "ECCENTRICITY": 0.02126602, "INCLINATION": 86.445, "RA_OF_ASC_NODE": 309.1888, "ARG_OF_PERICENTER": 276.4407, "MEAN_ANOMALY": 81.2606, "EPHEMERIS_TYPE": 0, "CLASSIFICATION_TYPE": "U", "NORAD_CAT_ID": 36012, "ELEMENT_SET_NO": 999, "REV_AT_EPOCH": 65426, "BSTAR": 0.010464965, "MEAN_MOTION_DOT": 0.00027331, "MEAN_MOTION_DDOT": 0}, "tle": {"line1": "1 36012U 97051UT  25342.63717643  .00027331  00000+0  10465-1 0  9999", "line2": "2 36012  86.4450 309.1888 0212660 276.4407  81.2606 14.18803085654269"}}, "geometry": {"type": "Point", "coordinates": [135.35457517824838, -60.351692623056906]}}, {"type": "Feature", "properties": {"norad_id": 36028, "name": "IRIDIUM 33 DEB", "group": "iridium-33-debris", "lat": -9.137844464437979, "lon": -52.08822637876049, "alt_km": 582.2823771201083, "timestamp": "2025-12-08T21:31:05.052294+00:00", "meta": {"OBJECT_NAME": "IRIDIUM 33 DEB", "OBJECT_ID": "1997-051VK", "EPOCH": "2025-12-08T15:07:59.294496", "MEAN_MOTION": 14.94981488, "ECCENTRICITY": 0.00220198, "INCLINATION": 86.3217, "RA_OF_ASC_NODE": 308.6297, "ARG_OF_PERICENTER": 65.6052, "MEAN_ANOMALY": 294.7472, "EPHEMERIS_TYPE": 0, "CLASSIFICATION_TYPE": "U", "NORAD_CAT_ID": 36028, "ELEMENT_SET_NO": 999, "REV_AT_EPOCH": 87063, "BSTAR": 0.0029712057, "MEAN_MOTION_DOT": 0.00032753, "MEAN_MOTION_DDOT": 0}, "tle": {"line1": "1 36028U 97051VK  25342.63054739  .00032753  00000+0  29712-2 0  9996", "line2": "2 36028  86.3217 308.6297 0022019  65.6052 294.7472 14.94981488870636"}}, "geometry": {"type": "Point", "coordinates": [-52.08822637876049, -9.137844464437979]}}, {"type": "Feature", "properties": {"norad_id": 36080, "name": "IRIDIUM 33 DEB", "group": "iridium-33-debris", "lat": 19.67884232460414, "lon": -171.65770101857802, "alt_km": 724.623365539398, "timestamp": "2025-12-08T21:31:05.052304+00:00", "meta": {"OBJECT_NAME": "IRIDIUM 33 DEB", "OBJECT_ID": "1997-051VM", "EPOCH": "2025-12-07T08:15:24.109920", "MEAN_MOTION": 14.46571942, "ECCENTRICITY": 0.00176312, "INCLINATION": 86.3198, "RA_OF_ASC_NODE": 10.3374, "ARG_OF_PERICENTER": 174.0737, "MEAN_ANOMALY": 186.0678, "EPHEMERIS_TYPE": 0, "CLASSIFICATION_TYPE": "U", "NORAD_CAT_ID": 36080, "ELEMENT_SET_NO": 999, "REV_AT_EPOCH": 47336, "BSTAR": 0.0010977788, "MEAN_MOTION_DOT": 3.982e-05, "MEAN_MOTION_DDOT": 0}, "tle": {"line1": "1 36080U 97051VM  25341.34402905  .00003982  00000+0  10978-2 0  9999", "line2": "2 36080  86.3198  10.3374 0017631 174.0737 186.0678 14.46571942473361"}}, "geometry": {"type": "Point", "coordinates": [-171.65770101857802, 19.67884232460414]}}, {"type": "Feature", "properties": {"norad_id": 36083, "name": "IRIDIUM 33 DEB", "group": "iridium-33-debris", "lat": -60.36688241559415, "lon": 29.35491381644057, "alt_km": 747.1017640085847, "timestamp": "2025-12-08T21:31:05.052315+00:00", "meta": {"OBJECT_NAME": "IRIDIUM 33 DEB", "OBJECT_ID": "1997-051VQ", "EPOCH": "2025-12-06T21:32:26.892672", "MEAN_MOTION": 14.43175138, "ECCENTRICITY": 0.00247889, "INCLINATION": 86.3442, "RA_OF_ASC_NODE": 36.6683, "ARG_OF_PERICENTER": 243.3344, "MEAN_ANOMALY": 116.5319, "EPHEMERIS_TYPE": 0, "CLASSIFICATION_TYPE": "U", "NORAD_CAT_ID": 36083, "ELEMENT_SET_NO": 999, "REV_AT_EPOCH": 85365, "BSTAR": 0.00098432537, "MEAN_MOTION_DOT": 3.337e-05, "MEAN_MOTION_DDOT": 0}, "tle": {"line1": "1 36083U 97051VQ  25340.89753348  .00003337  00000+0  98433-3 0  9998", "line2": "2 36083  86.3442  36.6683 0024788 243.3344 116.5319 14.43175138853653"}}, "geometry": {"type": "Point", "coordinates": [29.35491381644057, -60.36688241559415]}}, {"type": "Feature", "properties": {"norad_id": 36390, "name": "IRIDIUM 33 DEB", "group": "iridium-33-debris", "lat": 57.61181044569732, "lon": -52.97761626032428, "alt_km": 653.8790242194473, "timestamp": "2025-12-08T21:31:05.052324+00:00", "meta": {"OBJECT_NAME": "IRIDIUM 33 DEB", "OBJECT_ID": "1997-051VU", "EPOCH": "2025-12-08T14:44:10.068288", "MEAN_MOTION": 14.7351876, "ECCENTRICITY": 0.00298948, "INCLINATION": 86.2903, "RA_OF_ASC_NODE": 301.2813, "ARG_OF_PERICENTER": 175.8212, "MEAN_ANOMALY": 184.3262, "EPHEMERIS_TYPE": 0, "CLASSIFICATION_TYPE": "U", "NORAD_CAT_ID": 36390, "ELEMENT_SET_NO": 999, "REV_AT_EPOCH": 66201, "BSTAR": 0.0016262375, "MEAN_MOTION_DOT": 0.00010673, "MEAN_MOTION_DDOT": 0}, "tle": {"line1": "1 36390U 97051VU  25342.61400542  .00010673  00000+0  16262-2 0  9996", "line2": "2 36390  86.2903 301.2813 0029894 175.8212 184.3262 14.73518760662010"}}, "geometry": {"type": "Point", "coordinates": [-52.97761626032428, 57.61181044569732]}}, {"type": "Feature", "properties": {"norad_id": 36483, "name": "IRIDIUM 33 DEB", "group": "iridium-33-debris", "lat": 66.44598389138748, "lon": 62.48564856819427, "alt_km": 730.351623122413, "timestamp": "2025-12-08T21:31:05.052335+00:00", "meta": {"OBJECT_NAME": "IRIDIUM 33 DEB", "OBJECT_ID": "1997-051VZ", "EPOCH": "2025-12-08T11:14:38.908896", "MEAN_MOTION": 14.45787314, "ECCENTRICITY": 0.00108756, "INCLINATION": 86.3794, "RA_OF_ASC_NODE": 54.3174, "ARG_OF_PERICENTER": 137.8715, "MEAN_ANOMALY": 222.3325, "EPHEMERIS_TYPE": 0, "CLASSIFICATION_TYPE": "U", "NORAD_CAT_ID": 36483, "ELEMENT_SET_NO": 999, "REV_AT_EPOCH": 65084, "BSTAR": 0.00090663472, "MEAN_MOTION_DOT": 3.235e-05, "MEAN_MOTION_DDOT": 0}, "tle": {"line1": "1 36483U 97051VZ  25342.46850589  .00003235  00000+0  90663-3 0  9996", "line2": "2 36483  86.3794  54.3174 0010875 137.8715 222.3325 14.45787314650846"}}, "geometry": {"type": "Point", "coordinates": [62.48564856819427, 66.44598389138748]}}, {"type": "Feature", "properties": {"norad_id": 36490, "name": "IRIDIUM 33 DEB", "group": "iridium-33-debris", "lat": -83.70117478785849, "lon": -132.64480999761676, "alt_km": 653.0971653906245, "timestamp": "2025-12-08T21:31:05.052344+00:00", "meta": {"OBJECT_NAME": "IRIDIUM 33 DEB", "OBJECT_ID": "1997-051WG", "EPOCH": "2025-12-08T12:11:12.801984", "MEAN_MOTION": 14.76053442, "ECCENTRICITY": 0.00055405, "INCLINATION": 86.3655, "RA_OF_ASC_NODE": 12.3717, "ARG_OF_PERICENTER": 92.4911, "MEAN_ANOMALY": 267.6943, "EPHEMERIS_TYPE": 0, "CLASSIFICATION_TYPE": "U", "NORAD_CAT_ID": 36490, "ELEMENT_SET_NO": 999, "REV_AT_EPOCH": 86422, "BSTAR": 0.0019791123, "MEAN_MOTION_DOT": 0.0001368, "MEAN_MOTION_DDOT": 0}, "tle": {"line1": "1 36490U 97051WG  25342.50778706  .00013680  00000+0  19791-2 0  9996", "line2": "2 36490  86.3655  12.3717 0005540  92.4911 267.6943 14.76053442864223"}}, "geometry": {"type": "Point", "coordinates": [-132.64480999761676, -83.70117478785849]}}, {"type": "Feature", "properties": {"norad_id": 36493, "name": "IRIDIUM 33 DEB", "group": "iridium-33-debris", "lat": -21.588547630887145, "lon": 11.943309659341118, "alt_km": 676.0565274178234, "timestamp": "2025-12-08T21:31:05.052355+00:00", "meta": {"OBJECT_NAME": "IRIDIUM 33 DEB", "OBJECT_ID": "1997-051WK", "EPOCH": "2025-12-08T08:30:12.453984", "MEAN_MOTION": 14.65147155, "ECCENTRICITY": 0.00107202, "INCLINATION": 86.3577, "RA_OF_ASC_NODE": 13.6284, "ARG_OF_PERICENTER": 18.6274, "MEAN_ANOMALY": 341.533, "EPHEMERIS_TYPE": 0, "CLASSIFICATION_TYPE": "U", "NORAD_CAT_ID": 36493, "ELEMENT_SET_NO": 999, "REV_AT_EPOCH": 74454, "BSTAR": 0.0016475762, "MEAN_MOTION_DOT": 8.887e-05, "MEAN_MOTION_DDOT": 0}, "tle": {"line1": "1 36493U 97051WK  25342.35431081  .00008887  00000+0  16476-2 0  9994", "line2": "2 36493  86.3577  13.6284 0010720  18.6274 341.5330 14.65147155744547"}}, "geometry": {"type": "Point", "coordinates": [11.943309659341118, -21.588547630887145]}}, {"type": "Feature", "properties": {"norad_id": 37548, "name": "IRIDIUM 33 DEB", "group": "iridium-33-debris", "lat": -2.448407817589168, "lon": 44.88514181453516, "alt_km": 740.6914480897276, "timestamp": "2025-12-08T21:31:05.052365+00:00", "meta": {"OBJECT_NAME": "IRIDIUM 33 DEB", "OBJECT_ID": "1997-051XH", "EPOCH": "2025-11-29T22:23:36.250944", "MEAN_MOTION": 14.5113469, "ECCENTRICITY": 0.00243457, "INCLINATION": 86.3524, "RA_OF_ASC_NODE": 48.9393, "ARG_OF_PERICENTER": 232.6782, "MEAN_ANOMALY": 127.2204, "EPHEMERIS_TYPE": 0, "CLASSIFICATION_TYPE": "U", "NORAD_CAT_ID": 37548, "ELEMENT_SET_NO": 999, "REV_AT_EPOCH": 65346, "BSTAR": 0.0012745087, "MEAN_MOTION_DOT": 5.093e-05, "MEAN_MOTION_DDOT": 0}, "tle": {"line1": "1 37548U 97051XH  25333.93305846  .00005093  00000+0  12745-2 0  9990", "line2": "2 37548  86.3524  48.9393 0024345 232.6782 127.2204 14.51134690653467"}}, "geometry": {"type": "Point", "coordinates": [44.88514181453516, -2.448407817589168]}}]}